ONEWEB-0628             
1 55169U 23004AF  25292.26589451 -.00000036  00000+0 -13577-3 0  9991
2 55169  87.8968  38.5068 0001536  75.7513 284.3786 13.12444183136433
ONEWEB-0629             
1 55170U 23004AG  25292.31989102  .00000004  00000+0 -22540-4 0  9991
2 55170  87.9108  53.7775 0001293  96.7801 263.3478 13.17651955135862
ONEWEB-0631             
1 55171U 23004AH  25292.26913017  .00000129  00000+0  29336-3 0  9994
2 55171  87.9236  23.2757 0002337  95.0907 265.0492 13.18685846137927
ONEWEB-0709             
1 55172U 23004AJ  25292.10654732 -.00000539  00000+0 -15561-2 0  9995
2 55172  87.8823  69.1009 0002471 105.7122 254.4279 13.11416580134275
ONEWEB-0710             
1 55173U 23004AK  25292.25831793  .00000008  00000+0 -12033-4 0  9999
2 55173  87.9103  53.7840 0001673  91.9628 268.1695 13.17648504135858
ONEWEB-0711             
1 55174U 23004AL  25292.07773581  .00000334  00000+0  90697-3 0  9992
2 55174  87.8829  69.0760 0001696  69.2755 290.8555 13.11415091134233
ONEWEB-0713             
1 55175U 23004AM  25292.32526318 -.00000347  00000+0 -10140-2 0  9995
2 55175  87.8825  69.0316 0001565  85.6735 274.4572 13.11415606134253
ONEWEB-0715             
1 55176U 23004AN  25292.32018456 -.00000192  00000+0 -57856-3 0  9999
2 55176  87.8825  69.0323 0002330  94.6516 265.4878 13.11414764134297
